NORAD_CAT_ID,OBJECT_NAME,OBJECT_TYPE,EPOCH,MEAN_MOTION,ECCENTRICITY,INCLINATION,RA_OF_ASC_NODE,ARG_OF_PERICENTER,MEAN_ANOMALY,BSTAR,MEAN_MOTION_DOT,MEAN_MOTION_DDOT,TLE_LINE0,TLE_LINE1,TLE_LINE2,SEMIMAJOR_AXIS,PERIOD,APOGEE,PERIGEE,DECAYED
53171.0,STARLINK-4052,PAYLOAD,2023-03-28 19:52:36,15.08858199,5.91e-05,53.2163,288.0996,98.5521,261.5538,0.00037214,5.643e-05,0.0,0 STARLINK-4052,1 53171U 22083AR  23087.82819588  .00005643  00000-0  37214-3 0  9999,2 53171  53.2163 288.0996 0000591  98.5521 261.5538 15.08858199 39844,6917.825,95.436,540.099,539.281,0.0
53171.0,STARLINK-4052,PAYLOAD,2023-03-29 19:43:22,15.08849938,7.08e-05,53.216,283.6387,109.1496,250.9572,5.8855e-06,-1.94e-06,0.0,0 STARLINK-4052,1 53171U 22083AR  23088.82179361 -.00000194  00000-0  58855-5 0  9991,2 53171  53.2160 283.6387 0000708 109.1496 250.9572 15.08849938 39993,6917.85,95.437,540.205,539.225,0.0
53171.0,STARLINK-4052,PAYLOAD,2023-03-30 13:12:37,15.08841121,8.35e-05,53.2172,280.3708,76.1711,283.9374,7.773e-05,9.5e-06,0.0,0 STARLINK-4052,1 53171U 22083AR  23089.55043431  .00000950  00000-0  77730-4 0  9991,2 53171  53.2172 280.3708 0000835  76.1711 283.9374 15.08841121 40108,6917.877,95.437,540.32,539.164,0.0
53171.0,STARLINK-4052,PAYLOAD,2023-03-30 17:58:46,15.08845893,8.74e-05,53.2171,279.4767,84.9024,275.2067,0.00011556,1.552e-05,0.0,0 STARLINK-4052,1 53171U 22083AR  23089.74915376  .00001552  00000-0  11556-3 0  9990,2 53171  53.2171 279.4767 0000874  84.9024 275.2067 15.08845893 39491,6917.862,95.437,540.332,539.123,0.0
53171.0,STARLINK-4052,PAYLOAD,2023-03-31 05:06:28,15.08856437,8.35e-05,53.2167,277.3936,78.536,281.5726,0.00027606,4.11e-05,0.0,0 STARLINK-4052,1 53171U 22083AR  23090.21282583  .00004110  00000-0  27606-3 0  9997,2 53171  53.2167 277.3936 0000835  78.5360 281.5726 15.08856437 40209,6917.83,95.437,540.273,539.118,0.0
53171.0,STARLINK-4052,PAYLOAD,2023-03-31 13:03:24,15.08840022,8.9e-05,53.2167,275.9071,101.6463,258.4629,3.4871e-05,2.67e-06,0.0,0 STARLINK-4052,1 53171U 22083AR  23090.54403477  .00000267  00000-0  34871-4 0  9992,2 53171  53.2167 275.9071 0000890 101.6463 258.4629 15.08840022 40259,6917.88,95.438,540.361,539.13,0.0
53171.0,STARLINK-4052,PAYLOAD,2023-03-31 19:24:56,15.08848521,8.84e-05,53.2162,274.7183,101.8919,258.2172,0.00014545,2.028e-05,0.0,0 STARLINK-4052,1 53171U 22083AR  23090.80898973  .00002028  00000-0  14545-3 0  9992,2 53171  53.2162 274.7183 0000884 101.8919 258.2172 15.08848521 40293,6917.854,95.437,540.331,539.108,0.0
53171.0,STARLINK-4052,PAYLOAD,2023-04-01 12:54:12,15.08828504,0.000113,53.2185,271.4489,88.2749,271.8373,-0.00017289,-3.037e-05,0.0,0 STARLINK-4052,1 53171U 22083AR  23091.53764167 -.00003037  00000-0 -17289-3 0  9991,2 53171  53.2185 271.4489 0001130  88.2749 271.8373 15.08828504 40401,6917.916,95.438,540.562,538.999,0.0
53171.0,STARLINK-4052,PAYLOAD,2023-04-01 19:15:44,15.08830317,0.0001119,53.2182,270.2598,84.395,275.717,-0.00011795,-2.164e-05,0.0,0 STARLINK-4052,1 53171U 22083AR  23091.80260235 -.00002164  00000-0 -11795-3 0  9994,2 53171  53.2182 270.2598 0001119  84.3950 275.7170 15.08830317 39809,6917.91,95.438,540.549,539.001,0.0
53171.0,STARLINK-4052,PAYLOAD,2023-04-02 04:48:03,15.0883681,0.0001225,53.2185,268.4753,73.5979,286.5148,-1.7842e-05,-5.72e-06,0.0,0 STARLINK-4052,1 53171U 22083AR  23092.20004138 -.00000572  00000-0 -17842-4 0  9998,2 53171  53.2185 268.4753 0001225  73.5979 286.5148 15.08836810 40501,6917.89,95.438,540.603,538.908,0.0
53171.0,STARLINK-4052,PAYLOAD,2023-04-02 12:44:59,15.08842958,0.0001009,53.2193,266.9886,80.6625,279.4482,0.00016917,2.406e-05,0.0,0 STARLINK-4052,1 53171U 22083AR  23092.53123888  .00002406  00000-0  16917-3 0  9995,2 53171  53.2193 266.9886 0001009  80.6625 279.4482 15.08842958 39912,6917.871,95.437,540.434,539.038,0.0
53171.0,STARLINK-4052,PAYLOAD,2023-04-02 17:31:08,15.08848176,0.0001052,53.2182,266.0963,73.707,286.4038,0.00032893,4.952e-05,0.0,0 STARLINK-4052,1 53171U 22083AR  23092.72995779  .00004952  00000-0  32893-3 0  9991,2 53171  53.2182 266.0963 0001052  73.7070 286.4038 15.08848176 40580,6917.855,95.437,540.448,538.993,0.0
53171.0,STARLINK-4052,PAYLOAD,2023-04-03 11:00:23,15.08837969,0.0001421,53.2177,262.8259,68.215,291.8993,0.00013111,1.799e-05,0.0,0 STARLINK-4052,1 53171U 22083AR  23093.45860392  .00001799  00000-0  13111-3 0  9992,2 53171  53.2177 262.8259 0001421  68.2150 291.8993 15.08837969 40694,6917.887,95.438,540.735,538.769,0.0
53171.0,STARLINK-4052,PAYLOAD,2023-04-03 20:32:42,15.0883682,0.0001232,53.2176,261.0405,67.3528,292.7595,0.0002034,2.95e-05,0.0,0 STARLINK-4052,1 53171U 22083AR  23093.85604562  .00002950  00000-0  20340-3 0  9993,2 53171  53.2176 261.0405 0001232  67.3528 292.7595 15.08836820 40116,6917.89,95.438,540.607,538.903,0.0
53171.0,STARLINK-4052,PAYLOAD,2023-04-04 10:51:10,15.08844766,0.0001108,53.2158,258.3631,68.6557,291.4554,0.0001341,1.847e-05,0.0,0 STARLINK-4052,1 53171U 22083AR  23094.45220117  .00001847  00000-0  13410-3 0  9994,2 53171  53.2158 258.3631 0001108  68.6557 291.4554 15.08844766 40203,6917.866,95.437,540.497,538.964,0.0
53171.0,STARLINK-4052,PAYLOAD,2023-04-05 13:52:44,15.08833623,0.0001117,53.216,253.3088,60.3463,299.7641,0.00023729,3.49e-05,0.0,0 STARLINK-4052,1 53171U 22083AR  23095.57828803  .00003490  00000-0  23729-3 0  9994,2 53171  53.2160 253.3088 0001117  60.3463 299.7641 15.08833623 41010,6917.9,95.438,540.538,538.992,0.0
53171.0,STARLINK-4052,PAYLOAD,2023-04-05 17:03:30,15.0883817,0.0001017,53.2159,252.7128,74.1356,285.9749,6.5524e-05,7.55e-06,0.0,0 STARLINK-4052,1 53171U 22083AR  23095.71076477  .00000755  00000-0  65524-4 0  9993,2 53171  53.2159 252.7128 0001017  74.1356 285.9749 15.08838170 40397,6917.886,95.438,540.455,539.047,0.0
53171.0,STARLINK-4052,PAYLOAD,2023-04-06 10:32:44,15.08836882,9.22e-05,53.2166,249.4411,81.1829,278.9267,2.7767e-05,1.54e-06,0.0,0 STARLINK-4052,1 53171U 22083AR  23096.43940724  .00000154  00000-0  27767-4 0  9998,2 53171  53.2166 249.4411 0000922  81.1829 278.9267 15.08836882 40508,6917.89,95.438,540.393,539.117,0.0
53171.0,STARLINK-4052,PAYLOAD,2023-04-07 10:23:31,15.08839291,0.0001038,53.2166,244.9811,84.2201,275.8909,0.00012839,1.756e-05,0.0,0 STARLINK-4052,1 53171U 22083AR  23097.43300425  .00001756  00000-0  12839-3 0  9999,2 53171  53.2166 244.9811 0001038  84.2201 275.8909 15.08839291 41292,6917.883,95.438,540.466,539.029,0.0
53171.0,STARLINK-4052,PAYLOAD,2023-04-08 08:38:55,15.08836867,0.0001322,53.2186,240.8182,101.1778,258.9362,6.0501e-05,6.75e-06,0.0,0 STARLINK-4052,1 53171U 22083AR  23098.36036885  .00000675  00000-0  60501-4 0  9997,2 53171  53.2186 240.8182 0001322 101.1778 258.9362 15.08836867 41431,6917.89,95.438,540.67,538.84,0.0
53171.0,STARLINK-4052,PAYLOAD,2023-04-08 13:25:05,15.08836136,0.0001739,53.216,239.9248,105.7941,254.3243,5.0537e-05,5.16e-06,0.0,0 STARLINK-4052,1 53171U 22083AR  23098.55908954  .00000516  00000-0  50537-4 0  9995,2 53171  53.2160 239.9248 0001739 105.7941 254.3243 15.08836136 40828,6917.892,95.438,540.96,538.554,0.0
53171.0,STARLINK-4052,PAYLOAD,2023-04-09 10:05:06,15.08834154,0.0001192,53.218,236.061,96.7852,263.3276,8.4726e-05,1.061e-05,0.0,0 STARLINK-4052,1 53171U 22083AR  23099.42021157  .00001061  00000-0  84726-4 0  9996,2 53171  53.2180 236.0610 0001192  96.7852 263.3276 15.08834154 41593,6917.898,95.438,540.588,538.939,0.0
53171.0,STARLINK-4052,PAYLOAD,2023-04-09 16:26:38,15.08840836,0.0001208,53.2188,234.8722,96.6819,263.4311,0.0001345,1.853e-05,0.0,0 STARLINK-4052,1 53171U 22083AR  23099.68516682  .00001853  00000-0  13450-3 0  9990,2 53171  53.2188 234.8722 0001208  96.6819 263.4311 15.08840836 41631,6917.878,95.438,540.579,538.907,0.0
53171.0,STARLINK-4052,PAYLOAD,2023-04-10 08:20:30,15.08837434,0.0001312,53.2189,231.8992,94.1083,266.0059,0.00012072,1.634e-05,0.0,0 STARLINK-4052,1 53171U 22083AR  23100.34756995  .00001634  00000-0  12072-3 0  9995,2 53171  53.2189 231.8992 0001312  94.1083 266.0059 15.08837434 41098,6917.888,95.438,540.661,538.846,0.0
53171.0,STARLINK-4052,PAYLOAD,2023-04-11 01:49:43,15.08849061,8.28e-05,53.2193,228.6283,82.0375,278.0711,0.00018457,2.652e-05,0.0,0 STARLINK-4052,1 53171U 22083AR  23101.07619944  .00002652  00000-0  18457-3 0  9992,2 53171  53.2193 228.6283 0000828  82.0375 278.0711 15.08849061 41841,6917.853,95.437,540.29,539.145,0.0
53171.0,STARLINK-4052,PAYLOAD,2023-04-11 08:11:16,15.08842151,0.0001331,53.2163,227.438,83.5078,276.6065,0.00014015,1.943e-05,0.0,0 STARLINK-4052,1 53171U 22083AR  23101.34116600  .00001943  00000-0  14015-3 0  9991,2 53171  53.2163 227.4380 0001331  83.5078 276.6065 15.08842151 41882,6917.874,95.437,540.66,538.818,0.0
53171.0,STARLINK-4052,PAYLOAD,2023-04-12 14:23:35,15.08846616,0.0001336,53.2188,221.7899,88.5616,271.5529,8.1382e-05,1.008e-05,0.0,0 STARLINK-4052,1 53171U 22083AR  23102.59972147  .00001008  00000-0  81382-4 0  9999,2 53171  53.2188 221.7899 0001336  88.5616 271.5529 15.08846616 41439,6917.86,95.437,540.649,538.801,0.0
53171.0,STARLINK-4052,PAYLOAD,2023-04-13 11:03:38,15.08827369,0.0001395,53.2176,217.9241,81.2099,278.9051,-5.562e-05,-1.173e-05,0.0,0 STARLINK-4052,1 53171U 22083AR  23103.46086028 -.00001173  00000-0 -55620-4 0  9991,2 53171  53.2176 217.9241 0001395  81.2099 278.9051 15.08827369 41563,6917.919,95.438,540.749,538.819,0.0
53171.0,STARLINK-4052,PAYLOAD,2023-04-13 17:25:09,15.0884166,0.0001114,53.2202,216.7348,104.1178,255.9938,2.0013e-05,3.1e-07,0.0,0 STARLINK-4052,1 53171U 22083AR  23103.72580857  .00000031  00000-0  20013-4 0  9997,2 53171  53.2202 216.7348 0001114 104.1178 255.9938 15.08841660 42245,6917.875,95.437,540.511,538.97,0.0
53171.0,STARLINK-4052,PAYLOAD,2023-04-14 12:29:47,15.08837521,0.0001194,53.2175,213.1679,87.2354,272.8774,0.000165,2.339e-05,0.0,0 STARLINK-4052,1 53171U 22083AR  23104.52069050  .00002339  00000-0  16500-3 0  9991,2 53171  53.2175 213.1679 0001194  87.2354 272.8774 15.08837521 41726,6917.888,95.438,540.579,538.927,0.0
